[{"OBJECT_NAME":"FREGAT R/B","OBJECT_ID":"2023-198B","EPOCH":"2026-03-13T07:28:37.652160","MEAN_MOTION":1.99025272,"ECCENTRICITY":0.69256707,"INCLINATION":63.2342,"RA_OF_ASC_NODE":164.6885,"ARG_OF_PERICENTER":266.7069,"MEAN_ANOMALY":18.87,"EPHEMERIS_TYPE":0,"CLASSIFICATION_TYPE":"U","NORAD_CAT_ID":58585,"ELEMENT_SET_NO":999,"REV_AT_EPOCH":1629,"BSTAR":0,"MEAN_MOTION_DOT":8.43e-6,"MEAN_MOTION_DDOT":0},{"OBJECT_NAME":"OVZON-3","OBJECT_ID":"2024-003A","EPOCH":"2026-03-14T07:58:38.605728","MEAN_MOTION":1.00273604,"ECCENTRICITY":2.956e-5,"INCLINATION":0.0141,"RA_OF_ASC_NODE":164.6684,"ARG_OF_PERICENTER":278.6131,"MEAN_ANOMALY":268.0326,"EPHEMERIS_TYPE":0,"CLASSIFICATION_TYPE":"U","NORAD_CAT_ID":58698,"ELEMENT_SET_NO":999,"REV_AT_EPOCH":649,"BSTAR":0,"MEAN_MOTION_DOT":5.0e-7,"MEAN_MOTION_DDOT":0},{"OBJECT_NAME":"FALCON 9 R/B","OBJECT_ID":"2024-003B","EPOCH":"2026-03-14T02:12:46.610496","MEAN_MOTION":1.74319008,"ECCENTRICITY":0.77201607,"INCLINATION":26.4596,"RA_OF_ASC_NODE":80.7399,"ARG_OF_PERICENTER":176.5743,"MEAN_ANOMALY":197.0312,"EPHEMERIS_TYPE":0,"CLASSIFICATION_TYPE":"U","NORAD_CAT_ID":58699,"ELEMENT_SET_NO":999,"REV_AT_EPOCH":1354,"BSTAR":0.00049169227,"MEAN_MOTION_DOT":9.89e-6,"MEAN_MOTION_DDOT":0},{"OBJECT_NAME":"INSAT-3DS","OBJECT_ID":"2024-033A","EPOCH":"2026-03-14T14:02:02.876928","MEAN_MOTION":1.00271883,"ECCENTRICITY":0.00021421,"INCLINATION":0.029,"RA_OF_ASC_NODE":242.7645,"ARG_OF_PERICENTER":125.7347,"MEAN_ANOMALY":96.2735,"EPHEMERIS_TYPE":0,"CLASSIFICATION_TYPE":"U","NORAD_CAT_ID":58990,"ELEMENT_SET_NO":999,"REV_AT_EPOCH":4612,"BSTAR":0,"MEAN_MOTION_DOT":-1.56e-6,"MEAN_MOTION_DDOT":0},{"OBJECT_NAME":"MERAH PUTIH 2","OBJECT_ID":"2024-035A","EPOCH":"2026-03-14T15:23:05.482752","MEAN_MOTION":1.00272789,"ECCENTRICITY":0.00010152,"INCLINATION":0.0096,"RA_OF_ASC_NODE":191.9298,"ARG_OF_PERICENTER":191.0594,"MEAN_ANOMALY":132.9837,"EPHEMERIS_TYPE":0,"CLASSIFICATION_TYPE":"U","NORAD_CAT_ID":58995,"ELEMENT_SET_NO":999,"REV_AT_EPOCH":764,"BSTAR":0,"MEAN_MOTION_DOT":-3.59e-6,"MEAN_MOTION_DDOT":0},{"OBJECT_NAME":"FALCON 9 R/B","OBJECT_ID":"2024-035B","EPOCH":"2026-03-13T05:09:05.165568","MEAN_MOTION":1.39782072,"ECCENTRICITY":0.80332814,"INCLINATION":18.9747,"RA_OF_ASC_NODE":116.65,"ARG_OF_PERICENTER":122.6532,"MEAN_ANOMALY":338.3775,"EPHEMERIS_TYPE":0,"CLASSIFICATION_TYPE":"U","NORAD_CAT_ID":58996,"ELEMENT_SET_NO":999,"REV_AT_EPOCH":1046,"BSTAR":0.00096758277,"MEAN_MOTION_DOT":1.338e-5,"MEAN_MOTION_DDOT":0},{"OBJECT_NAME":"TJS-11","OBJECT_ID":"2024-037A","EPOCH":"2026-03-13T18:19:14.658240","MEAN_MOTION":1.00269908,"ECCENTRICITY":0.0005976,"INCLINATION":4.3276,"RA_OF_ASC_NODE":325.8917,"ARG_OF_PERICENTER":51.6413,"MEAN_ANOMALY":188.9982,"EPHEMERIS_TYPE":0,"CLASSIFICATION_TYPE":"U","NORAD_CAT_ID":59020,"ELEMENT_SET_NO":999,"REV_AT_EPOCH":762,"BSTAR":0,"MEAN_MOTION_DOT":-3.67e-6,"MEAN_MOTION_DDOT":0},{"OBJECT_NAME":"HULIANWAN GAOGUI-01 (HG-01)","OBJECT_ID":"2024-040A","EPOCH":"2026-03-14T06:57:25.371072","MEAN_MOTION":1.00273763,"ECCENTRICITY":0.00041289,"INCLINATION":0.0637,"RA_OF_ASC_NODE":319.3468,"ARG_OF_PERICENTER":50.976,"MEAN_ANOMALY":299.6082,"EPHEMERIS_TYPE":0,"CLASSIFICATION_TYPE":"U","NORAD_CAT_ID":59069,"ELEMENT_SET_NO":999,"REV_AT_EPOCH":637,"BSTAR":0,"MEAN_MOTION_DOT":1.55e-6,"MEAN_MOTION_DDOT":0},{"OBJECT_NAME":"EUTELSAT 36D","OBJECT_ID":"2024-059A","EPOCH":"2026-03-14T13:48:49.146048","MEAN_MOTION":1.0027161,"ECCENTRICITY":2.629e-5,"INCLINATION":0.0102,"RA_OF_ASC_NODE":186.6351,"ARG_OF_PERICENTER":284.5204,"MEAN_ANOMALY":304.0787,"EPHEMERIS_TYPE":0,"CLASSIFICATION_TYPE":"U","NORAD_CAT_ID":59346,"ELEMENT_SET_NO":999,"REV_AT_EPOCH":719,"BSTAR":0,"MEAN_MOTION_DOT":1.55e-6,"MEAN_MOTION_DDOT":0},{"OBJECT_NAME":"PAKSAT-MM1","OBJECT_ID":"2024-104A","EPOCH":"2026-03-12T07:03:17.445024","MEAN_MOTION":1.0027277,"ECCENTRICITY":0.0002394,"INCLINATION":0.0097,"RA_OF_ASC_NODE":158.9645,"ARG_OF_PERICENTER":191.0481,"MEAN_ANOMALY":323.8856,"EPHEMERIS_TYPE":0,"CLASSIFICATION_TYPE":"U","NORAD_CAT_ID":59915,"ELEMENT_SET_NO":999,"REV_AT_EPOCH":655,"BSTAR":0,"MEAN_MOTION_DOT":1.54e-6,"MEAN_MOTION_DDOT":0},{"OBJECT_NAME":"TITAN 3C TRANSTAGE DEB","OBJECT_ID":"1968-081AL","EPOCH":"2026-03-13T07:39:49.518432","MEAN_MOTION":1.02046068,"ECCENTRICITY":0.01048286,"INCLINATION":1.9913,"RA_OF_ASC_NODE":55.5975,"ARG_OF_PERICENTER":247.4542,"MEAN_ANOMALY":111.964,"EPHEMERIS_TYPE":0,"CLASSIFICATION_TYPE":"U","NORAD_CAT_ID":59978,"ELEMENT_SET_NO":999,"REV_AT_EPOCH":2883,"BSTAR":0,"MEAN_MOTION_DOT":-1.91e-6,"MEAN_MOTION_DDOT":0},{"OBJECT_NAME":"TITAN 3C TRANSTAGE DEB","OBJECT_ID":"1968-081AP","EPOCH":"2026-02-24T12:34:22.858752","MEAN_MOTION":1.00903601,"ECCENTRICITY":0.02394127,"INCLINATION":2.1517,"RA_OF_ASC_NODE":46.8618,"ARG_OF_PERICENTER":257.344,"MEAN_ANOMALY":264.2268,"EPHEMERIS_TYPE":0,"CLASSIFICATION_TYPE":"U","NORAD_CAT_ID":59981,"ELEMENT_SET_NO":999,"REV_AT_EPOCH":5972,"BSTAR":0,"MEAN_MOTION_DOT":-1.0e-7,"MEAN_MOTION_DDOT":0},{"OBJECT_NAME":"TITAN 3C TRANSTAGE DEB","OBJECT_ID":"1968-081AR","EPOCH":"2026-02-23T04:43:53.015232","MEAN_MOTION":1.02072056,"ECCENTRICITY":0.02104643,"INCLINATION":2.4491,"RA_OF_ASC_NODE":58.6146,"ARG_OF_PERICENTER":8.6022,"MEAN_ANOMALY":352.1275,"EPHEMERIS_TYPE":0,"CLASSIFICATION_TYPE":"U","NORAD_CAT_ID":59983,"ELEMENT_SET_NO":999,"REV_AT_EPOCH":679,"BSTAR":0,"MEAN_MOTION_DOT":4.3e-7,"MEAN_MOTION_DDOT":0},{"OBJECT_NAME":"HIMAWARI 1 AKM","OBJECT_ID":"1977-065GQ","EPOCH":"2026-03-14T02:31:28.898112","MEAN_MOTION":1.01126952,"ECCENTRICITY":0.02767911,"INCLINATION":4.4438,"RA_OF_ASC_NODE":274.7245,"ARG_OF_PERICENTER":119.3489,"MEAN_ANOMALY":243.2167,"EPHEMERIS_TYPE":0,"CLASSIFICATION_TYPE":"U","NORAD_CAT_ID":59985,"ELEMENT_SET_NO":999,"REV_AT_EPOCH":4548,"BSTAR":0,"MEAN_MOTION_DOT":-1.86e-6,"MEAN_MOTION_DDOT":0},{"OBJECT_NAME":"EKRAN 2 DEB","OBJECT_ID":"1977-092M","EPOCH":"2026-03-14T06:41:19.414752","MEAN_MOTION":1.00932439,"ECCENTRICITY":0.00420371,"INCLINATION":4.0187,"RA_OF_ASC_NODE":272.3134,"ARG_OF_PERICENTER":111.3932,"MEAN_ANOMALY":225.9892,"EPHEMERIS_TYPE":0,"CLASSIFICATION_TYPE":"U","NORAD_CAT_ID":59986,"ELEMENT_SET_NO":999,"REV_AT_EPOCH":4556,"BSTAR":0,"MEAN_MOTION_DOT":-6.3e-7,"MEAN_MOTION_DDOT":0},{"OBJECT_NAME":"EKRAN 2 DEB","OBJECT_ID":"1977-092N","EPOCH":"2026-03-14T14:10:02.110944","MEAN_MOTION":1.0018684,"ECCENTRICITY":0.00117353,"INCLINATION":4.3691,"RA_OF_ASC_NODE":275.2123,"ARG_OF_PERICENTER":222.8446,"MEAN_ANOMALY":356.7734,"EPHEMERIS_TYPE":0,"CLASSIFICATION_TYPE":"U","NORAD_CAT_ID":59987,"ELEMENT_SET_NO":999,"REV_AT_EPOCH":6216,"BSTAR":0,"MEAN_MOTION_DOT":-3.48e-6,"MEAN_MOTION_DDOT":0},{"OBJECT_NAME":"EKRAN 2 DEB","OBJECT_ID":"1977-092P","EPOCH":"2026-03-14T13:57:40.796352","MEAN_MOTION":1.00885516,"ECCENTRICITY":0.00504136,"INCLINATION":4.1812,"RA_OF_ASC_NODE":272.7883,"ARG_OF_PERICENTER":70.0463,"MEAN_ANOMALY":105.0911,"EPHEMERIS_TYPE":0,"CLASSIFICATION_TYPE":"U","NORAD_CAT_ID":59988,"ELEMENT_SET_NO":999,"REV_AT_EPOCH":7409,"BSTAR":0,"MEAN_MOTION_DOT":-1.43e-6,"MEAN_MOTION_DDOT":0}]
