FREGAT R/B              
1 58585U 23198B   26072.31154690  .00000843  00000+0  00000+0 0  9993
2 58585  63.2342 164.6885 6925670 266.7069  18.8700  1.99025272 16291
OVZON-3                 
1 58698U 24003A   26073.33239127  .00000050  00000+0  00000+0 0  9996
2 58698   0.0141 164.6684 0000295 278.6131 268.0326  1.00273604  6492
FALCON 9 R/B            
1 58699U 24003B   26073.09220614  .00000989  00000+0  49169-3 0  9995
2 58699  26.4596  80.7399 7720160 176.5743 197.0312  1.74319008 13542
INSAT-3DS               
1 58990U 24033A   26073.58475552 -.00000156  00000+0  00000+0 0  9993
2 58990   0.0290 242.7645 0002142 125.7347  96.2735  1.00271883 46127
MERAH PUTIH 2           
1 58995U 24035A   26073.64103568 -.00000359  00000+0  00000+0 0  9997
2 58995   0.0096 191.9298 0001015 191.0594 132.9837  1.00272789  7644
FALCON 9 R/B            
1 58996U 24035B   26072.21464312  .00001338  00000+0  96758-3 0  9993
2 58996  18.9747 116.6500 8033281 122.6532 338.3775  1.39782072 10466
TJS-11                  
1 59020U 24037A   26072.76336410 -.00000367  00000+0  00000+0 0  9994
2 59020   4.3276 325.8917 0005976  51.6413 188.9982  1.00269908  7627
HULIANWAN GAOGUI-01 (H*)
1 59069U 24040A   26073.28987698  .00000155  00000+0  00000+0 0  9993
2 59069   0.0637 319.3468 0004128  50.9760 299.6082  1.00273763  6374
EUTELSAT 36D            
1 59346U 24059A   26073.57556882  .00000155  00000+0  00000+0 0  9990
2 59346   0.0102 186.6351 0000262 284.5204 304.0787  1.00271610  7191
PAKSAT-MM1              
1 59915U 24104A   26071.29395191  .00000154  00000+0  00000+0 0  9993
2 59915   0.0097 158.9645 0002394 191.0481 323.8856  1.00272770  6554
TITAN 3C TRANSTAGE DEB  
1 59978U 68081AL  26072.31932313 -.00000191  00000+0  00000+0 0  9993
2 59978   1.9913  55.5975 0104828 247.4542 111.9640  1.02046068 28830
TITAN 3C TRANSTAGE DEB  
1 59981U 68081AP  26055.52387568 -.00000010  00000+0  00000+0 0  9997
2 59981   2.1517  46.8618 0239412 257.3440 264.2268  1.00903601 59722
TITAN 3C TRANSTAGE DEB  
1 59983U 68081AR  26054.19714138  .00000043  00000+0  00000+0 0  9993
2 59983   2.4491  58.6146 0210464   8.6022 352.1275  1.02072056  6791
HIMAWARI 1 AKM          
1 59985U 77065GQ  26073.10519558 -.00000186  00000+0  00000+0 0  9997
2 59985   4.4438 274.7245 0276791 119.3489 243.2167  1.01126952 45482
EKRAN 2 DEB             
1 59986U 77092M   26073.27869693 -.00000063  00000+0  00000+0 0  9998
2 59986   4.0187 272.3134 0042037 111.3932 225.9892  1.00932439 45565
EKRAN 2 DEB             
1 59987U 77092N   26073.59030221 -.00000348  00000+0  00000+0 0  9997
2 59987   4.3691 275.2123 0011735 222.8446 356.7734  1.00186840 62168
EKRAN 2 DEB             
1 59988U 77092P   26073.58172218 -.00000143  00000+0  00000+0 0  9993
2 59988   4.1812 272.7883 0050413  70.0463 105.0911  1.00885516 74098
